start=new Date('2022-12-27T00:00:00.000Z').valueOf();
sats=[{"CLASSIFICATION_TYPE":"U","REV_AT_EPOCH":"12838","OBJECT_NAME":"STARLINK-1765","APOAPSIS":"548.133","ARG_OF_PERICENTER":"98.3145","MEAN_MOTION_DDOT":"0.0000000000000","EPOCH":"2022-12-26T15:03:17.148384","MEAN_MOTION":"15.06402592","NORAD_CAT_ID":"46344","MEAN_MOTION_DOT":"-0.00005643","TIME_SYSTEM":"UTC","CENTER_NAME":"EARTH","MEAN_ELEMENT_THEORY":"SGP4","SEMIMAJOR_AXIS":"6925.341","RA_OF_ASC_NODE":"204.7532","BSTAR":"-0.00036022000000","ELEMENT_SET_NO":"999","SITE":"AFETR","GP_ID":"221521115","COUNTRY_CODE":"US","EPHEMERIS_TYPE":"0","RCS_SIZE":"LARGE","LAUNCH_DATE":"2020-09-03","PERIAPSIS":"546.278","OBJECT_TYPE":"PAYLOAD","PERIOD":"95.592","TLE_LINE2":"2 46344  53.0511 204.7532 0001339  98.3145 261.7995 15.06402592128382","ECCENTRICITY":"0.00013390","OBJECT_ID":"2020-062V","REF_FRAME":"TEME","TLE_LINE1":"1 46344U 20062V   22360.62728181 -.00005643  00000-0 -36022-3 0  9995","FILE":"3723236","MEAN_ANOMALY":"261.7995","INCLINATION":"53.0511","DECAY_DATE":null},{"BSTAR":"0.00003260200000","ELEMENT_SET_NO":"999","RA_OF_ASC_NODE":"224.1420","SITE":"AFETR","COUNTRY_CODE":"US","GP_ID":"221521364","EPHEMERIS_TYPE":"0","RCS_SIZE":"LARGE","LAUNCH_DATE":"2020-09-03","PERIAPSIS":"546.238","OBJECT_TYPE":"PAYLOAD","PERIOD":"95.592","FILE":"3723236","TLE_LINE1":"1 46345U 20062W   22360.76088119  .00000204  00000-0  32602-4 0  9998","MEAN_ANOMALY":"284.5295","ECCENTRICITY":"0.00014250","TLE_LINE2":"2 46345  53.0550 224.1420 0001425  75.5852 284.5295 15.06396268128126","OBJECT_ID":"2020-062W","REF_FRAME":"TEME","DECAY_DATE":null,"INCLINATION":"53.0550","CLASSIFICATION_TYPE":"U","REV_AT_EPOCH":"12812","OBJECT_NAME":"STARLINK-1767","ARG_OF_PERICENTER":"75.5852","MEAN_MOTION_DDOT":"0.0000000000000","APOAPSIS":"548.212","EPOCH":"2022-12-26T18:15:40.134816","MEAN_MOTION":"15.06396268","NORAD_CAT_ID":"46345","CENTER_NAME":"EARTH","TIME_SYSTEM":"UTC","MEAN_MOTION_DOT":"0.00000204","SEMIMAJOR_AXIS":"6925.360","MEAN_ELEMENT_THEORY":"SGP4"},{"EPOCH":"2022-12-26T10:00:21.767904","APOAPSIS":"461.411","ARG_OF_PERICENTER":"36.4611","MEAN_MOTION_DDOT":"0.0000000000000","OBJECT_NAME":"STARLINK-1546","CLASSIFICATION_TYPE":"U","REV_AT_EPOCH":"13082","MEAN_ELEMENT_THEORY":"SGP4","SEMIMAJOR_AXIS":"6834.976","MEAN_MOTION_DOT":"0.00022950","TIME_SYSTEM":"UTC","CENTER_NAME":"EARTH","MEAN_MOTION":"15.36375177","NORAD_CAT_ID":"46346","RCS_SIZE":"LARGE","EPHEMERIS_TYPE":"0","PERIAPSIS":"452.270","LAUNCH_DATE":"2020-09-03","GP_ID":"221522115","COUNTRY_CODE":"US","SITE":"AFETR","RA_OF_ASC_NODE":"31.2566","BSTAR":"0.00064601000000","ELEMENT_SET_NO":"999","INCLINATION":"53.0619","DECAY_DATE":null,"ECCENTRICITY":"0.00066870","TLE_LINE2":"2 46346  53.0619  31.2566 0006687  36.4611 323.6846 15.36375177130821","REF_FRAME":"TEME","OBJECT_ID":"2020-062X","MEAN_ANOMALY":"323.6846","TLE_LINE1":"1 46346U 20062X   22360.41691861  .00022950  00000-0  64601-3 0  9990","FILE":"3723236","PERIOD":"93.727","OBJECT_TYPE":"PAYLOAD"},{"SITE":"AFETR","RA_OF_ASC_NODE":"178.7421","ELEMENT_SET_NO":"999","BSTAR":"0.00002256200000","PERIAPSIS":"546.286","LAUNCH_DATE":"2020-09-03","RCS_SIZE":"LARGE","EPHEMERIS_TYPE":"0","GP_ID":"221521866","COUNTRY_CODE":"US","PERIOD":"95.592","OBJECT_TYPE":"PAYLOAD","INCLINATION":"53.0529","DECAY_DATE":null,"REF_FRAME":"TEME","OBJECT_ID":"2020-062Y","TLE_LINE2":"2 46347  53.0529 178.7421 0001339  97.4323 262.6818 15.06399926128750","ECCENTRICITY":"0.00013390","TLE_LINE1":"1 46347U 20062Y   22360.85259673  .00000055  00000-0  22562-4 0  9993","FILE":"3723236","MEAN_ANOMALY":"262.6818","OBJECT_NAME":"STARLINK-1547","REV_AT_EPOCH":"12875","CLASSIFICATION_TYPE":"U","EPOCH":"2022-12-26T20:27:44.357472","APOAPSIS":"548.141","MEAN_MOTION_DDOT":"0.0000000000000","ARG_OF_PERICENTER":"97.4323","TIME_SYSTEM":"UTC","MEAN_MOTION_DOT":"0.00000055","CENTER_NAME":"EARTH","NORAD_CAT_ID":"46347","MEAN_MOTION":"15.06399926","MEAN_ELEMENT_THEORY":"SGP4","SEMIMAJOR_AXIS":"6925.349"},{"OBJECT_NAME":"STARLINK-1553","CLASSIFICATION_TYPE":"U","REV_AT_EPOCH":"12841","EPOCH":"2022-12-26T19:55:14.810592","APOAPSIS":"548.233","ARG_OF_PERICENTER":"107.7887","MEAN_MOTION_DDOT":"0.0000000000000","TIME_SYSTEM":"UTC","MEAN_MOTION_DOT":"-0.00000229","CENTER_NAME":"EARTH","MEAN_MOTION":"15.06392906","NORAD_CAT_ID":"46348","MEAN_ELEMENT_THEORY":"SGP4","SEMIMAJOR_AXIS":"6925.370","SITE":"AFETR","RA_OF_ASC_NODE":"203.8359","BSTAR":"0.00000353130000","ELEMENT_SET_NO":"999","EPHEMERIS_TYPE":"0","RCS_SIZE":"LARGE","PERIAPSIS":"546.237","LAUNCH_DATE":"2020-09-03","GP_ID":"221520616","COUNTRY_CODE":"US","PERIOD":"95.593","OBJECT_TYPE":"PAYLOAD","INCLINATION":"53.0544","DECAY_DATE":null,"TLE_LINE2":"2 46348  53.0544 203.8359 0001441 107.7887 252.3259 15.06392906128411","ECCENTRICITY":"0.00014410","OBJECT_ID":"2020-062Z","REF_FRAME":"TEME","TLE_LINE1":"1 46348U 20062Z   22360.83003253 -.00000229  00000-0  35313-5 0  9996","FILE":"3723236","MEAN_ANOMALY":"252.3259"},{"GP_ID":"221520866","COUNTRY_CODE":"US","PERIAPSIS":"546.155","LAUNCH_DATE":"2020-09-03","RCS_SIZE":"LARGE","EPHEMERIS_TYPE":"0","RA_OF_ASC_NODE":"178.5516","ELEMENT_SET_NO":"999","BSTAR":"0.00001773400000","SITE":"AFETR","OBJECT_ID":"2020-062AA","REF_FRAME":"TEME","TLE_LINE2":"2 46349  53.0540 178.5516 0001527  70.4837 289.6317 15.06400197128776","ECCENTRICITY":"0.00015270","FILE":"3723236","TLE_LINE1":"1 46349U 20062AA  22360.89314366 -.00000017  00000-0  17734-4 0  9994","MEAN_ANOMALY":"289.6317","INCLINATION":"53.0540","DECAY_DATE":null,"OBJECT_TYPE":"PAYLOAD","PERIOD":"95.592","APOAPSIS":"548.270","MEAN_MOTION_DDOT":"0.0000000000000","ARG_OF_PERICENTER":"70.4837","EPOCH":"2022-12-26T21:26:07.612224","REV_AT_EPOCH":"12877","CLASSIFICATION_TYPE":"U","OBJECT_NAME":"STARLINK-1575","MEAN_ELEMENT_THEORY":"SGP4","SEMIMAJOR_AXIS":"6925.348","NORAD_CAT_ID":"46349","MEAN_MOTION":"15.06400197","TIME_SYSTEM":"UTC","MEAN_MOTION_DOT":"-0.00000017","CENTER_NAME":"EARTH"},{"OBJECT_NAME":"STARLINK-1617","REV_AT_EPOCH":"12812","CLASSIFICATION_TYPE":"U","EPOCH":"2022-12-26T17:23:57.427008","APOAPSIS":"548.237","MEAN_MOTION_DDOT":"0.0000000000000","ARG_OF_PERICENTER":"75.5796","MEAN_MOTION_DOT":"0.00000701","TIME_SYSTEM":"UTC","CENTER_NAME":"EARTH","NORAD_CAT_ID":"46350","MEAN_MOTION":"15.06399782","MEAN_ELEMENT_THEORY":"SGP4","SEMIMAJOR_AXIS":"6925.349","SITE":"AFETR","RA_OF_ASC_NODE":"224.3075","BSTAR":"0.00006592400000","ELEMENT_SET_NO":"999","PERIAPSIS":"546.191","LAUNCH_DATE":"2020-09-03","EPHEMERIS_TYPE":"0","RCS_SIZE":"LARGE","GP_ID":"221521616","COUNTRY_CODE":"US","PERIOD":"95.592","OBJECT_TYPE":"PAYLOAD","INCLINATION":"53.0530","DECAY_DATE":null,"OBJECT_ID":"2020-062AB","REF_FRAME":"TEME","TLE_LINE2":"2 46350  53.0530 224.3075 0001477  75.5796 284.5357 15.06399782128125","ECCENTRICITY":"0.00014770","FILE":"3723236","TLE_LINE1":"1 46350U 20062AB  22360.72497022  .00000701  00000-0  65924-4 0  9992","MEAN_ANOMALY":"284.5357"},{"MEAN_MOTION":"15.06393528","NORAD_CAT_ID":"46351","CENTER_NAME":"EARTH","MEAN_MOTION_DOT":"-0.00000276","TIME_SYSTEM":"UTC","SEMIMAJOR_AXIS":"6925.368","MEAN_ELEMENT_THEORY":"SGP4","CLASSIFICATION_TYPE":"U","REV_AT_EPOCH":"12839","OBJECT_NAME":"STARLINK-1646","ARG_OF_PERICENTER":"73.3201","MEAN_MOTION_DDOT":"0.0000000000000","APOAPSIS":"548.219","EPOCH":"2022-12-26T14:19:28.584768","OBJECT_TYPE":"PAYLOAD","PERIOD":"95.593","TLE_LINE1":"1 46351U 20062AC  22360.59685862 -.00000276  00000-0  33913-6 0  9992","FILE":"3723236","MEAN_ANOMALY":"286.7944","ECCENTRICITY":"0.00014230","TLE_LINE2":"2 46351  53.0535 204.8625 0001423  73.3201 286.7944 15.06393528128390","REF_FRAME":"TEME","OBJECT_ID":"2020-062AC","DECAY_DATE":null,"INCLINATION":"53.0535","ELEMENT_SET_NO":"999","BSTAR":"0.00000033913000","RA_OF_ASC_NODE":"204.8625","SITE":"AFETR","COUNTRY_CODE":"US","GP_ID":"221522366","RCS_SIZE":"LARGE","EPHEMERIS_TYPE":"0","PERIAPSIS":"546.248","LAUNCH_DATE":"2020-09-03"},{"ARG_OF_PERICENTER":"85.6859","MEAN_MOTION_DDOT":"0.0000000000000","APOAPSIS":"548.478","EPOCH":"2022-12-26T20:16:27.041952","CLASSIFICATION_TYPE":"U","REV_AT_EPOCH":"12842","OBJECT_NAME":"STARLINK-1653","MEAN_ELEMENT_THEORY":"SGP4","SEMIMAJOR_AXIS":"6925.307","MEAN_MOTION":"15.06413672","NORAD_CAT_ID":"46352","CENTER_NAME":"EARTH","MEAN_MOTION_DOT":"-0.00002678","TIME_SYSTEM":"UTC","COUNTRY_CODE":"US","GP_ID":"221521116","EPHEMERIS_TYPE":"0","RCS_SIZE":"LARGE","PERIAPSIS":"545.866","LAUNCH_DATE":"2020-09-03","ELEMENT_SET_NO":"999","BSTAR":"-0.00016088000000","RA_OF_ASC_NODE":"203.7757","SITE":"AFETR","MEAN_ANOMALY":"274.4345","TLE_LINE1":"1 46352U 20062AD  22360.84475743 -.00002678  00000-0 -16088-3 0  9996","FILE":"3723236","ECCENTRICITY":"0.00018860","TLE_LINE2":"2 46352  53.0528 203.7757 0001886  85.6859 274.4345 15.06413672128421","REF_FRAME":"TEME","OBJECT_ID":"2020-062AD","DECAY_DATE":null,"INCLINATION":"53.0528","OBJECT_TYPE":"PAYLOAD","PERIOD":"95.591"},{"EPOCH":"2022-12-26T21:49:20.574624","ARG_OF_PERICENTER":"77.2449","MEAN_MOTION_DDOT":"0.0000000000000","APOAPSIS":"548.258","OBJECT_NAME":"STARLINK-1656","CLASSIFICATION_TYPE":"U","REV_AT_EPOCH":"12814","SEMIMAJOR_AXIS":"6925.352","MEAN_ELEMENT_THEORY":"SGP4","CENTER_NAME":"EARTH","TIME_SYSTEM":"UTC","MEAN_MOTION_DOT":"-0.00000232","MEAN_MOTION":"15.06399026","NORAD_CAT_ID":"46353","RCS_SIZE":"LARGE","EPHEMERIS_TYPE":"0","PERIAPSIS":"546.175","LAUNCH_DATE":"2020-09-03","COUNTRY_CODE":"US","GP_ID":"221521365","SITE":"AFETR","ELEMENT_SET_NO":"999","BSTAR":"0.00000331160000","RA_OF_ASC_NODE":"223.4877","DECAY_DATE":null,"INCLINATION":"53.0541","TLE_LINE1":"1 46353U 20062AE  22360.90926591 -.00000232  00000-0  33116-5 0  9992","MEAN_ANOMALY":"282.8708","FILE":"3723236","ECCENTRICITY":"0.00015040","TLE_LINE2":"2 46353  53.0541 223.4877 0001504  77.2449 282.8708 15.06399026128149","OBJECT_ID":"2020-062AE","REF_FRAME":"TEME","PERIOD":"95.592","OBJECT_TYPE":"PAYLOAD"}];
